{"type": "FeatureCollection", "features": [ {"type": "Feature", "properties": {"norad_id": 35583, "name": "COSMOS 2251 DEB", "group": "cosmos-2251-debris", "lat": 60.815342361510446, "lon": 17.840794058425352, "alt_km": 1263.4251008468482, "timestamp": "2025-12-02T07:10:09.512602+00:00", "meta": {"OBJECT_NAME": "COSMOS 2251 DEB", "OBJECT_ID": "1993-036AMA", "EPOCH": "2025-12-01T09:18:45.701280", "MEAN_MOTION": 13.55311164, "ECCENTRICITY": 0.03859858, "INCLINATION": 73.9177, "RA_OF_ASC_NODE": 230.413, "ARG_OF_PERICENTER": 256.8414, "MEAN_ANOMALY": 98.9367, "EPHEMERIS_TYPE": 0, "CLASSIFICATION_TYPE": "U", "NORAD_CAT_ID": 35583, "ELEMENT_SET_NO": 999, "REV_AT_EPOCH": 82258, "BSTAR": 0.00049161142, "MEAN_MOTION_DOT": 5.24e-06, "MEAN_MOTION_DDOT": 0}, "tle": {"line1": "1 35583U 93036AMA 25335.38802895  .00000524  00000+0  49161-3 0  9990", "line2": "2 35583  73.9177 230.4130 0385985 256.8414  98.9367 13.55311164822588"}}, "geometry": {"type": "Point", "coordinates": [17.840794058425352, 60.815342361510446]}}, {"type": "Feature", "properties": {"norad_id": 35585, "name": "COSMOS 2251 DEB", "group": "cosmos-2251-debris", "lat": 45.23823225310944, "lon": 22.696603904329, "alt_km": 1111.5403961725306, "timestamp": "2025-12-02T07:10:09.512612+00:00", "meta": {"OBJECT_NAME": "COSMOS 2251 DEB", "OBJECT_ID": "1993-036AMC", "EPOCH": "2025-11-29T13:23:02.410656", "MEAN_MOTION": 13.75184641, "ECCENTRICITY": 0.03105919, "INCLINATION": 73.972, "RA_OF_ASC_NODE": 10.4214, "ARG_OF_PERICENTER": 285.2591, "MEAN_ANOMALY": 234.6318, "EPHEMERIS_TYPE": 0, "CLASSIFICATION_TYPE": "U", "NORAD_CAT_ID": 35585, "ELEMENT_SET_NO": 999, "REV_AT_EPOCH": 63882, "BSTAR": 0.0011222766, "MEAN_MOTION_DOT": 1.502e-05, "MEAN_MOTION_DDOT": 0}, "tle": {"line1": "1 35585U 93036AMC 25333.55766679  .00001502  00000+0  11223-2 0  9992", "line2": "2 35585  73.9720  10.4214 0310591 285.2591 234.6318 13.75184641638823"}}, "geometry": {"type": "Point", "coordinates": [22.696603904329, 45.23823225310944]}}, {"type": "Feature", "properties": {"norad_id": 35586, "name": "COSMOS 2251 DEB", "group": "cosmos-2251-debris", "lat": 21.241529539817673, "lon": -34.3992694111729, "alt_km": 1364.184844608366, "timestamp": "2025-12-02T07:10:09.512622+00:00", "meta": {"OBJECT_NAME": "COSMOS 2251 DEB", "OBJECT_ID": "1993-036AMD", "EPOCH": "2025-11-30T16:52:48.213120", "MEAN_MOTION": 13.52072818, "ECCENTRICITY": 0.04052263, "INCLINATION": 74.0205, "RA_OF_ASC_NODE": 321.7609, "ARG_OF_PERICENTER": 199.6217, "MEAN_ANOMALY": 340.481, "EPHEMERIS_TYPE": 0, "CLASSIFICATION_TYPE": "U", "NORAD_CAT_ID": 35586, "ELEMENT_SET_NO": 999, "REV_AT_EPOCH": 60219, "BSTAR": 0.00040711043, "MEAN_MOTION_DOT": 4.27e-06, "MEAN_MOTION_DDOT": 0}, "tle": {"line1": "1 35586U 93036AMD 25334.70333580  .00000427  00000+0  40711-3 0  9992", "line2": "2 35586  74.0205 321.7609 0405226 199.6217 340.4810 13.52072818602194"}}, "geometry": {"type": "Point", "coordinates": [-34.3992694111729, 21.241529539817673]}}, {"type": "Feature", "properties": {"norad_id": 35587, "name": "COSMOS 2251 DEB", "group": "cosmos-2251-debris", "lat": 73.69784395336333, "lon": 157.51607141593934, "alt_km": 721.3938106528367, "timestamp": "2025-12-02T07:10:09.512633+00:00", "meta": {"OBJECT_NAME": "COSMOS 2251 DEB", "OBJECT_ID": "1993-036AME", "EPOCH": "2025-11-30T00:55:26.661792", "MEAN_MOTION": 14.71442478, "ECCENTRICITY": 0.01029182, "INCLINATION": 74.0048, "RA_OF_ASC_NODE": 83.1611, "ARG_OF_PERICENTER": 273.58, "MEAN_ANOMALY": 85.3606, "EPHEMERIS_TYPE": 0, "CLASSIFICATION_TYPE": "U", "NORAD_CAT_ID": 35587, "ELEMENT_SET_NO": 999, "REV_AT_EPOCH": 66159, "BSTAR": 0.00034534908, "MEAN_MOTION_DOT": 2.288e-05, "MEAN_MOTION_DDOT": 0}, "tle": {"line1": "1 35587U 93036AME 25334.03850303  .00002288  00000+0  34535-3 0  9990", "line2": "2 35587  74.0048  83.1611 0102918 273.5800  85.3606 14.71442478661596"}}, "geometry": {"type": "Point", "coordinates": [157.51607141593934, 73.69784395336333]}}, {"type": "Feature", "properties": {"norad_id": 35593, "name": "COSMOS 2251 DEB", "group": "cosmos-2251-debris", "lat": 34.84066327190367, "lon": 115.78977757691179, "alt_km": 879.2112528071857, "timestamp": "2025-12-02T07:10:09.512643+00:00", "meta": {"OBJECT_NAME": "COSMOS 2251 DEB", "OBJECT_ID": "1993-036AML", "EPOCH": "2025-12-01T15:20:07.352736", "MEAN_MOTION": 14.25489853, "ECCENTRICITY": 0.01053249, "INCLINATION": 74.0863, "RA_OF_ASC_NODE": 308.4309, "ARG_OF_PERICENTER": 317.4816, "MEAN_ANOMALY": 41.8208, "EPHEMERIS_TYPE": 0, "CLASSIFICATION_TYPE": "U", "NORAD_CAT_ID": 35593, "ELEMENT_SET_NO": 999, "REV_AT_EPOCH": 84907, "BSTAR": 0.0013867692, "MEAN_MOTION_DOT": 3.448e-05, "MEAN_MOTION_DDOT": 0}, "tle": {"line1": "1 35593U 93036AML 25335.63897399  .00003448  00000+0  13868-2 0  9994", "line2": "2 35593  74.0863 308.4309 0105324 317.4816  41.8208 14.25489853849077"}}, "geometry": {"type": "Point", "coordinates": [115.78977757691179, 34.84066327190367]}}, {"type": "Feature", "properties": {"norad_id": 35594, "name": "COSMOS 2251 DEB", "group": "cosmos-2251-debris", "lat": -73.45219078450818, "lon": 49.670591720822195, "alt_km": 595.0314612712182, "timestamp": "2025-12-02T07:10:09.512653+00:00", "meta": {"OBJECT_NAME": "COSMOS 2251 DEB", "OBJECT_ID": "1993-036AMM", "EPOCH": "2025-12-01T02:30:04.449024", "MEAN_MOTION": 14.8736155, "ECCENTRICITY": 0.00313469, "INCLINATION": 73.8065, "RA_OF_ASC_NODE": 130.0573, "ARG_OF_PERICENTER": 241.1394, "MEAN_ANOMALY": 118.6638, "EPHEMERIS_TYPE": 0, "CLASSIFICATION_TYPE": "U", "NORAD_CAT_ID": 35594, "ELEMENT_SET_NO": 999, "REV_AT_EPOCH": 88012, "BSTAR": 0.00176297, "MEAN_MOTION_DOT": 0.00016075, "MEAN_MOTION_DDOT": 0}, "tle": {"line1": "1 35594U 93036AMM 25335.10421816  .00016075  00000+0  17630-2 0  9995", "line2": "2 35594  73.8065 130.0573 0031346 241.1394 118.6638 14.87361550880129"}}, "geometry": {"type": "Point", "coordinates": [49.670591720822195, -73.45219078450818]}}, {"type": "Feature", "properties": {"norad_id": 35602, "name": "COSMOS 2251 DEB", "group": "cosmos-2251-debris", "lat": 51.56879779070374, "lon": -134.13454654451328, "alt_km": 505.95721405491076, "timestamp": "2025-12-02T07:10:09.512663+00:00", "meta": {"OBJECT_NAME": "COSMOS 2251 DEB", "OBJECT_ID": "1993-036AMV", "EPOCH": "2025-12-01T09:48:13.299264", "MEAN_MOTION": 15.34507798, "ECCENTRICITY": 0.00911278, "INCLINATION": 73.996, "RA_OF_ASC_NODE": 206.571, "ARG_OF_PERICENTER": 274.9373, "MEAN_ANOMALY": 263.3024, "EPHEMERIS_TYPE": 0, "CLASSIFICATION_TYPE": "U", "NORAD_CAT_ID": 35602, "ELEMENT_SET_NO": 999, "REV_AT_EPOCH": 89917, "BSTAR": 0.00055877277, "MEAN_MOTION_DOT": 0.00021407, "MEAN_MOTION_DDOT": 0}, "tle": {"line1": "1 35602U 93036AMV 25335.40848726  .00021407  00000+0  55877-3 0  9992", "line2": "2 35602  73.9960 206.5710 0091127 274.9373 263.3024 15.34507798899171"}}, "geometry": {"type": "Point", "coordinates": [-134.13454654451328, 51.56879779070374]}}, {"type": "Feature", "properties": {"norad_id": 35605, "name": "COSMOS 2251 DEB", "group": "cosmos-2251-debris", "lat": -53.551789423731044, "lon": -157.81731782821234, "alt_km": 473.9857457729686, "timestamp": "2025-12-02T07:10:09.512673+00:00", "meta": {"OBJECT_NAME": "COSMOS 2251 DEB", "OBJECT_ID": "1993-036AMY", "EPOCH": "2025-11-25T09:05:01.395168", "MEAN_MOTION": 15.26251894, "ECCENTRICITY": 0.00343964, "INCLINATION": 73.8732, "RA_OF_ASC_NODE": 13.9291, "ARG_OF_PERICENTER": 311.4103, "MEAN_ANOMALY": 48.4141, "EPHEMERIS_TYPE": 0, "CLASSIFICATION_TYPE": "U", "NORAD_CAT_ID": 35605, "ELEMENT_SET_NO": 999, "REV_AT_EPOCH": 65706, "BSTAR": 0.0065174874, "MEAN_MOTION_DOT": 0.00175767, "MEAN_MOTION_DDOT": 0}, "tle": {"line1": "1 35605U 93036AMY 25329.37848837  .00175767  00000+0  65175-2 0  9997", "line2": "2 35605  73.8732  13.9291 0034396 311.4103  48.4141 15.26251894657063"}}, "geometry": {"type": "Point", "coordinates": [-157.81731782821234, -53.551789423731044]}}, {"type": "Feature", "properties": {"norad_id": 35606, "name": "COSMOS 2251 DEB", "group": "cosmos-2251-debris", "lat": -25.160209463637532, "lon": -144.7179081290567, "alt_km": 805.4595779340243, "timestamp": "2025-12-02T07:10:09.512683+00:00", "meta": {"OBJECT_NAME": "COSMOS 2251 DEB", "OBJECT_ID": "1993-036AMZ", "EPOCH": "2025-12-01T13:59:58.207776", "MEAN_MOTION": 13.41178531, "ECCENTRICITY": 0.04578452, "INCLINATION": 73.8111, "RA_OF_ASC_NODE": 28.5794, "ARG_OF_PERICENTER": 235.9208, "MEAN_ANOMALY": 119.7645, "EPHEMERIS_TYPE": 0, "CLASSIFICATION_TYPE": "U", "NORAD_CAT_ID": 35606, "ELEMENT_SET_NO": 999, "REV_AT_EPOCH": 60890, "BSTAR": 0.0014608258, "MEAN_MOTION_DOT": 1.479e-05, "MEAN_MOTION_DDOT": 0}, "tle": {"line1": "1 35606U 93036AMZ 25335.58331259  .00001479  00000+0  14608-2 0  9996", "line2": "2 35606  73.8111  28.5794 0457845 235.9208 119.7645 13.41178531608900"}}, "geometry": {"type": "Point", "coordinates": [-144.7179081290567, -25.160209463637532]}}, {"type": "Feature", "properties": {"norad_id": 35611, "name": "COSMOS 2251 DEB", "group": "cosmos-2251-debris", "lat": 69.86914110803825, "lon": -108.93795224037132, "alt_km": 661.4556304253128, "timestamp": "2025-12-02T07:10:09.512693+00:00", "meta": {"OBJECT_NAME": "COSMOS 2251 DEB", "OBJECT_ID": "1993-036ANE", "EPOCH": "2025-12-01T14:30:37.941120", "MEAN_MOTION": 14.72378528, "ECCENTRICITY": 0.00224128, "INCLINATION": 74.0218, "RA_OF_ASC_NODE": 201.0005, "ARG_OF_PERICENTER": 275.1179, "MEAN_ANOMALY": 84.7435, "EPHEMERIS_TYPE": 0, "CLASSIFICATION_TYPE": "U", "NORAD_CAT_ID": 35611, "ELEMENT_SET_NO": 999, "REV_AT_EPOCH": 87126, "BSTAR": 0.0019124254, "MEAN_MOTION_DOT": 0.00012147, "MEAN_MOTION_DDOT": 0}, "tle": {"line1": "1 35611U 93036ANE 25335.60460580  .00012147  00000+0  19124-2 0  9997", "line2": "2 35611  74.0218 201.0005 0022412 275.1179  84.7435 14.72378528871263"}}, "geometry": {"type": "Point", "coordinates": [-108.93795224037132, 69.86914110803825]}}]}